{"type": "FeatureCollection", "features": [ {"type": "Feature", "properties": {"norad_id": 17070, "name": "POLAR BEAR", "group": "nnss", "lat": 19.19460881755806, "lon": -175.85512949673912, "alt_km": 994.5362862026359, "timestamp": "2025-12-06T18:50:10.436961+00:00", "meta": {"OBJECT_NAME": "POLAR BEAR", "OBJECT_ID": "1986-088A", "EPOCH": "2025-12-06T07:21:28.759968", "MEAN_MOTION": 13.75248882, "ECCENTRICITY": 0.00405397, "INCLINATION": 89.6179, "RA_OF_ASC_NODE": 184.031, "ARG_OF_PERICENTER": 137.9418, "MEAN_ANOMALY": 35.4001, "EPHEMERIS_TYPE": 0, "CLASSIFICATION_TYPE": "U", "NORAD_CAT_ID": 17070, "ELEMENT_SET_NO": 999, "REV_AT_EPOCH": 95890, "BSTAR": 0.00017457342, "MEAN_MOTION_DOT": 1.8e-06, "MEAN_MOTION_DDOT": 0}, "tle": {"line1": "1 17070U 86088A   25340.30658287  .00000180  00000+0  17457-3 0  9993", "line2": "2 17070  89.6179 184.0310 0040539 137.9418  35.4001 13.75248882958900"}}, "geometry": {"type": "Point", "coordinates": [-175.85512949673912, 19.19460881755806]}}, {"type": "Feature", "properties": {"norad_id": 18361, "name": "OSCAR 27", "group": "nnss", "lat": -26.193662123199328, "lon": -101.13469191673641, "alt_km": 1033.7609483776487, "timestamp": "2025-12-06T18:50:10.436971+00:00", "meta": {"OBJECT_NAME": "OSCAR 27", "OBJECT_ID": "1987-080A", "EPOCH": "2025-12-06T07:05:33.751392", "MEAN_MOTION": 13.44904671, "ECCENTRICITY": 0.01025132, "INCLINATION": 90.3742, "RA_OF_ASC_NODE": 79.0312, "ARG_OF_PERICENTER": 242.5023, "MEAN_ANOMALY": 116.5676, "EPHEMERIS_TYPE": 0, "CLASSIFICATION_TYPE": "U", "NORAD_CAT_ID": 18361, "ELEMENT_SET_NO": 999, "REV_AT_EPOCH": 87470, "BSTAR": 0.000299663, "MEAN_MOTION_DOT": 1.89e-06, "MEAN_MOTION_DDOT": 0}, "tle": {"line1": "1 18361U 87080A   25340.29552953  .00000189  00000+0  29966-3 0  9998", "line2": "2 18361  90.3742  79.0312 0102513 242.5023 116.5676 13.44904671874705"}}, "geometry": {"type": "Point", "coordinates": [-101.13469191673641, -26.193662123199328]}}, {"type": "Feature", "properties": {"norad_id": 18362, "name": "OSCAR 29", "group": "nnss", "lat": -48.138964468248744, "lon": -100.91134207157882, "alt_km": 1037.0302470953948, "timestamp": "2025-12-06T18:50:10.436982+00:00", "meta": {"OBJECT_NAME": "OSCAR 29", "OBJECT_ID": "1987-080B", "EPOCH": "2025-12-06T05:16:35.442624", "MEAN_MOTION": 13.44446542, "ECCENTRICITY": 0.01037263, "INCLINATION": 90.3754, "RA_OF_ASC_NODE": 79.4867, "ARG_OF_PERICENTER": 266.136, "MEAN_ANOMALY": 109.6931, "EPHEMERIS_TYPE": 0, "CLASSIFICATION_TYPE": "U", "NORAD_CAT_ID": 18362, "ELEMENT_SET_NO": 999, "REV_AT_EPOCH": 87422, "BSTAR": 0.00025097464, "MEAN_MOTION_DOT": 1.58e-06, "MEAN_MOTION_DDOT": 0}, "tle": {"line1": "1 18362U 87080B   25340.21985466  .00000158  00000+0  25097-3 0  9997", "line2": "2 18362  90.3754  79.4867 0103726 266.1360 109.6931 13.44446542874223"}}, "geometry": {"type": "Point", "coordinates": [-100.91134207157882, -48.138964468248744]}}, {"type": "Feature", "properties": {"norad_id": 19070, "name": "OSCAR 23", "group": "nnss", "lat": 1.2775565314454396, "lon": 16.20100565442951, "alt_km": 1295.1518588721938, "timestamp": "2025-12-06T18:50:10.436992+00:00", "meta": {"OBJECT_NAME": "OSCAR 23", "OBJECT_ID": "1988-033A", "EPOCH": "2025-12-06T00:47:23.463744", "MEAN_MOTION": 13.27785596, "ECCENTRICITY": 0.01889685, "INCLINATION": 90.3219, "RA_OF_ASC_NODE": 16.1847, "ARG_OF_PERICENTER": 198.5931, "MEAN_ANOMALY": 170.0577, "EPHEMERIS_TYPE": 0, "CLASSIFICATION_TYPE": "U", "NORAD_CAT_ID": 19070, "ELEMENT_SET_NO": 999, "REV_AT_EPOCH": 82164, "BSTAR": 0.0002557335, "MEAN_MOTION_DOT": 1.35e-06, "MEAN_MOTION_DDOT": 0}, "tle": {"line1": "1 19070U 88033A   25340.03291046  .00000135  00000+0  25573-3 0  9991", "line2": "2 19070  90.3219  16.1847 0188968 198.5931 170.0577 13.27785596821647"}}, "geometry": {"type": "Point", "coordinates": [16.20100565442951, 1.2775565314454396]}}, {"type": "Feature", "properties": {"norad_id": 19071, "name": "OSCAR 32", "group": "nnss", "lat": 74.508071866557, "lon": -162.49678543502517, "alt_km": 1115.2696912252304, "timestamp": "2025-12-06T18:50:10.437002+00:00", "meta": {"OBJECT_NAME": "OSCAR 32", "OBJECT_ID": "1988-033B", "EPOCH": "2025-12-06T02:09:53.845056", "MEAN_MOTION": 13.27952759, "ECCENTRICITY": 0.01877989, "INCLINATION": 90.3223, "RA_OF_ASC_NODE": 16.3179, "ARG_OF_PERICENTER": 185.2777, "MEAN_ANOMALY": 203.4142, "EPHEMERIS_TYPE": 0, "CLASSIFICATION_TYPE": "U", "NORAD_CAT_ID": 19071, "ELEMENT_SET_NO": 999, "REV_AT_EPOCH": 82177, "BSTAR": 0.00024557881, "MEAN_MOTION_DOT": 1.31e-06, "MEAN_MOTION_DDOT": 0}, "tle": {"line1": "1 19071U 88033B   25340.09020654  .00000131  00000+0  24558-3 0  9991", "line2": "2 19071  90.3223  16.3179 0187798 185.2777 203.4142 13.27952759821774"}}, "geometry": {"type": "Point", "coordinates": [-162.49678543502517, 74.508071866557]}}, {"type": "Feature", "properties": {"norad_id": 19223, "name": "NOVA 2", "group": "nnss", "lat": 52.262157439140545, "lon": 78.29616349043968, "alt_km": 1146.5356645590828, "timestamp": "2025-12-06T18:50:10.437013+00:00", "meta": {"OBJECT_NAME": "NOVA 2", "OBJECT_ID": "1988-052A", "EPOCH": "2025-12-06T05:57:11.395584", "MEAN_MOTION": 13.2293488, "ECCENTRICITY": 0.00311133, "INCLINATION": 89.9873, "RA_OF_ASC_NODE": 78.2804, "ARG_OF_PERICENTER": 34.39, "MEAN_ANOMALY": 342.7792, "EPHEMERIS_TYPE": 0, "CLASSIFICATION_TYPE": "U", "NORAD_CAT_ID": 19223, "ELEMENT_SET_NO": 999, "REV_AT_EPOCH": 80862, "BSTAR": 0.00028289465, "MEAN_MOTION_DOT": 1.28e-06, "MEAN_MOTION_DDOT": 0}, "tle": {"line1": "1 19223U 88052A   25340.24804856  .00000128  00000+0  28289-3 0  9993", "line2": "2 19223  89.9873  78.2804 0031113  34.3900 342.7792 13.22934880808628"}}, "geometry": {"type": "Point", "coordinates": [78.29616349043968, 52.262157439140545]}}, {"type": "Feature", "properties": {"norad_id": 19419, "name": "OSCAR 25", "group": "nnss", "lat": 67.19246304825894, "lon": 20.140722375003826, "alt_km": 1160.8089627917861, "timestamp": "2025-12-06T18:50:10.437023+00:00", "meta": {"OBJECT_NAME": "OSCAR 25", "OBJECT_ID": "1988-074A", "EPOCH": "2025-12-06T02:32:34.920672", "MEAN_MOTION": 13.42621447, "ECCENTRICITY": 0.00942541, "INCLINATION": 90.0352, "RA_OF_ASC_NODE": 20.2221, "ARG_OF_PERICENTER": 265.1111, "MEAN_ANOMALY": 122.4206, "EPHEMERIS_TYPE": 0, "CLASSIFICATION_TYPE": "U", "NORAD_CAT_ID": 19419, "ELEMENT_SET_NO": 999, "REV_AT_EPOCH": 82551, "BSTAR": 0.00027876173, "MEAN_MOTION_DOT": 1.7e-06, "MEAN_MOTION_DDOT": 0}, "tle": {"line1": "1 19419U 88074A   25340.10595973  .00000170  00000+0  27876-3 0  9994", "line2": "2 19419  90.0352  20.2221 0094254 265.1111 122.4206 13.42621447825517"}}, "geometry": {"type": "Point", "coordinates": [20.140722375003826, 67.19246304825894]}}, {"type": "Feature", "properties": {"norad_id": 19420, "name": "OSCAR 31", "group": "nnss", "lat": -47.68524416718764, "lon": 20.614053083150985, "alt_km": 1066.5467061509153, "timestamp": "2025-12-06T18:50:10.437033+00:00", "meta": {"OBJECT_NAME": "OSCAR 31", "OBJECT_ID": "1988-074B", "EPOCH": "2025-12-06T08:23:47.882400", "MEAN_MOTION": 13.42583098, "ECCENTRICITY": 0.00925189, "INCLINATION": 90.0369, "RA_OF_ASC_NODE": 20.5719, "ARG_OF_PERICENTER": 258.5139, "MEAN_ANOMALY": 111.8547, "EPHEMERIS_TYPE": 0, "CLASSIFICATION_TYPE": "U", "NORAD_CAT_ID": 19420, "ELEMENT_SET_NO": 999, "REV_AT_EPOCH": 82565, "BSTAR": 0.00024365971, "MEAN_MOTION_DOT": 1.5e-06, "MEAN_MOTION_DDOT": 0}, "tle": {"line1": "1 19420U 88074B   25340.34985975  .00000150  00000+0  24366-3 0  9996", "line2": "2 19420  90.0369  20.5719 0092518 258.5139 111.8547 13.42583098825653"}}, "geometry": {"type": "Point", "coordinates": [20.614053083150985, -47.68524416718764]}}]}